LOGOS_L_00005001-01
1 54373U 23441SP  26070.40854167  .00000000  00000+0  00000-0 0  9995
2 54373  90.0000   0.0000 0000000   0.0000   0.0000 14.03993250    10
LOGOS_L_00005001-02
1 54374U 22363FO  26070.40854167  .00000000  00000+0  00000-0 0  9998
2 54374  90.0000   0.0000 0000000   0.0000  14.4000 14.03993250    10
LOGOS_L_00005001-03
1 54375U 25217LN  26070.40854167  .00000000  00000+0  00000-0 0  9990
2 54375  90.0000   0.0000 0000000   0.0000  28.8000 14.03993250    10
LOGOS_L_00005001-04
1 54376U 23786KP  26070.40854167  .00000000  00000+0  00000-0 0  9990
2 54376  90.0000   0.0000 0000000   0.0000  43.2000 14.03993250    12
LOGOS_L_00005001-05
1 54377U 23774NG  26070.40854167  .00000000  00000+0  00000-0 0  9998
2 54377  90.0000   0.0000 0000000   0.0000  57.6000 14.03993250    12
LOGOS_L_00005001-06
1 54378U 26868CM  26070.40854167  .00000000  00000+0  00000-0 0  9996
2 54378  90.0000   0.0000 0000000   0.0000  72.0000 14.03993250    14
LOGOS_L_00005001-07
1 54379U 23178FJ  26070.40854167  .00000000  00000+0  00000-0 0  9998
2 54379  90.0000   0.0000 0000000   0.0000  86.4000 14.03993250    14
LOGOS_L_00005001-08
1 54380U 25833OT  26070.40854167  .00000000  00000+0  00000-0 0  9990
2 54380  90.0000   0.0000 0000000   0.0000 100.8000 14.03993250    17
LOGOS_L_00005001-09
1 54381U 23447FJ  26070.40854167  .00000000  00000+0  00000-0 0  9990
2 54381  90.0000   0.0000 0000000   0.0000 115.2000 14.03993250    18
LOGOS_L_00005001-10
1 54382U 23943CJ  26070.40854167  .00000000  00000+0  00000-0 0  9992
2 54382  90.0000   0.0000 0000000   0.0000 129.6000 14.03993250    18
LOGOS_L_00005001-11
1 54383U 22138EM  26070.40854167  .00000000  00000+0  00000-0 0  9998
2 54383  90.0000   0.0000 0000000   0.0000 144.0000 14.03993250    10
LOGOS_L_00005001-12
1 54384U 23150JU  26070.40854167  .00000000  00000+0  00000-0 0  9994
2 54384  90.0000   0.0000 0000000   0.0000 158.4000 14.03993250    10
LOGOS_L_00005001-13
1 54385U 25009EV  26070.40854167  .00000000  00000+0  00000-0 0  9990
2 54385  90.0000   0.0000 0000000   0.0000 172.8000 14.03993250    11
LOGOS_L_00005001-14
1 54386U 22092YG  26070.40854167  .00000000  00000+0  00000-0 0  9990
2 54386  90.0000   0.0000 0000000   0.0000 187.2000 14.03993250    12
LOGOS_L_00005001-15
1 54387U 23048IK  26070.40854167  .00000000  00000+0  00000-0 0  9993
2 54387  90.0000   0.0000 0000000   0.0000 201.6000 14.03993250    14
LOGOS_L_00005001-16
1 54388U 22866CU  26070.40854167  .00000000  00000+0  00000-0 0  9991
2 54388  90.0000   0.0000 0000000   0.0000 216.0000 14.03993250    15
LOGOS_L_00005001-17
1 54389U 23302NU  26070.40854167  .00000000  00000+0  00000-0 0  9998
2 54389  90.0000   0.0000 0000000   0.0000 230.4000 14.03993250    16
LOGOS_L_00005001-18
1 54390U 26155OP  26070.40854167  .00000000  00000+0  00000-0 0  9999
2 54390  90.0000   0.0000 0000000   0.0000 244.8000 14.03993250    17
LOGOS_L_00005001-19
1 54391U 23291PC  26070.40854167  .00000000  00000+0  00000-0 0  9998
2 54391  90.0000   0.0000 0000000   0.0000 259.2000 14.03993250    18
LOGOS_L_00005001-20
1 54392U 23596WB  26070.40854167  .00000000  00000+0  00000-0 0  9997
2 54392  90.0000   0.0000 0000000   0.0000 273.6000 14.03993250    19
LOGOS_L_00005001-21
1 54393U 25677IF  26070.40854167  .00000000  00000+0  00000-0 0  9990
2 54393  90.0000   0.0000 0000000   0.0000 288.0000 14.03993250    10
LOGOS_L_00005001-22
1 54394U 25060QN  26070.40854167  .00000000  00000+0  00000-0 0  9997
2 54394  90.0000   0.0000 0000000   0.0000 302.4000 14.03993250    12
LOGOS_L_00005001-23
1 54395U 24154EB  26070.40854167  .00000000  00000+0  00000-0 0  9991
2 54395  90.0000   0.0000 0000000   0.0000 316.8000 14.03993250    12
LOGOS_L_00005001-24
1 54396U 23800TN  26070.40854167  .00000000  00000+0  00000-0 0  9999
2 54396  90.0000   0.0000 0000000   0.0000 331.2000 14.03993250    14
LOGOS_L_00005001-25
1 54397U 26442YI  26070.40854167  .00000000  00000+0  00000-0 0  9995
2 54397  90.0000   0.0000 0000000   0.0000 345.6000 14.03993250    14
